0 SL-8 R/B
1 04579U 70083B   13281.13745840  .00000252  00000-0  59482-4 0  7292
2 04579 074.0031 149.2994 0009894 134.2815 348.7573 14.59322064278048
0 SL-8 R/B
1 04579U 70083B   13282.30217387  .00000294  00000-0  68542-4 0  7307
2 04579 074.0030 147.0751 0009866 131.4944 347.9373 14.59324087278210
0 SL-8 R/B
1 04579U 70083B   13283.72635311  .00000273  00000-0  63933-4 0  7312
2 04579 074.0028 144.3551 0009877 128.0263 270.3572 14.59324900278420
0 SL-8 R/B
1 04579U 70083B   13286.14486916  .00000265  00000-0  62310-4 0  7337
2 04579 074.0024 139.7361 0009854 122.1048 016.9120 14.59325957278778
0 SL-8 R/B
1 04579U 70083B   13287.17314932  .00000297  00000-0  68987-4 0  7341
2 04579 074.0022 137.7721 0009841 119.6633 019.2837 14.59326506278920
0 SL-8 R/B
1 04579U 70083B   13288.73675248  .00000351  00000-0  80512-4 0  7354
2 04579 074.0020 134.7857 0009789 115.9628 314.1266 14.59328257279153
0 SL-8 R/B
1 04579U 70083B   13290.11998576  .00000304  00000-0  70557-4 0  7368
2 04579 074.0020 132.1437 0009775 112.6201 021.4194 14.59329512279350
0 SL-8 R/B
1 04579U 70083B   13291.14768233  .00000309  00000-0  71720-4 0  7376
2 04579 074.0020 130.1808 0009761 110.0908 020.8285 14.59330157279509
0 SL-8 R/B
1 04579U 70083B   13292.49804940  .00000364  00000-0  83168-4 0  7382
2 04579 074.0022 127.6016 0009756 106.8267 275.4587 14.59330800279708
0 SL-8 R/B
1 04579U 70083B   13293.74298456  .00000440  00000-0  99316-4 0  7398
2 04579 074.0023 125.2238 0009731 103.7752 336.2128 14.59331485279883
0 SL-8 R/B
1 04579U 70083B   13295.12427699  .00000466  00000-0  10477-3 0  7405
2 04579 074.0024 122.5857 0009726 100.3401 033.4241 14.59332671280083
